{
  "type": "FeatureCollection",
  "features": [
    {
      "type": "Feature",
      "properties": {
        "norad_id": 67033,
        "name": "STARLINK-36137",
        "group": "last-30-days",
        "lat": 21.800685212105115,
        "lon": 117.25154770493359,
        "alt_km": 380.85267230035697,
        "timestamp": "2025-12-27T13:34:48.009714+00:00",
        "meta_object_name": "STARLINK-36137",
        "meta_object_id": "2025-294D",
        "meta_epoch": "2025-12-27T06:00:02.000160",
        "meta_mean_motion": 15.62645542,
        "meta_eccentricity": 0.00015696,
        "meta_inclination": 42.9993,
        "meta_ra_of_asc_node": 93.711,
        "meta_arg_of_pericenter": 279.3542,
        "meta_mean_anomaly": 135.7091,
        "meta_ephemeris_type": 0,
        "meta_classification_type": "U",
        "meta_norad_cat_id": 67033,
        "meta_element_set_no": 999,
        "meta_rev_at_epoch": 244,
        "meta_bstar": -0.0231839,
        "meta_mean_motion_dot": -0.01889584,
        "meta_mean_motion_ddot": 0,
        "tle_line1": "1 67033U 25294D   25361.25002315 -.01889584  00000+0 -23184-1 0  9999",
        "tle_line2": "2 67033  42.9993  93.7110 0001569 279.3542 135.7091 15.62645542  2447"
      },
      "geometry": {
        "type": "Point",
        "coordinates": [
          117.25154770493359,
          21.800685212105115
        ]
      }
    },
    {
      "type": "Feature",
      "properties": {
        "norad_id": 67034,
        "name": "STARLINK-36140",
        "group": "last-30-days",
        "lat": 24.246207896406663,
        "lon": 120.72461492274827,
        "alt_km": 380.57057326634185,
        "timestamp": "2025-12-27T13:34:48.009724+00:00",
        "meta_object_name": "STARLINK-36140",
        "meta_object_id": "2025-294E",
        "meta_epoch": "2025-12-27T06:00:02.000160",
        "meta_mean_motion": 15.62628991,
        "meta_eccentricity": 0.00014495,
        "meta_inclination": 42.9993,
        "meta_ra_of_asc_node": 93.7002,
        "meta_arg_of_pericenter": 279.5923,
        "meta_mean_anomaly": 139.5249,
        "meta_ephemeris_type": 0,
        "meta_classification_type": "U",
        "meta_norad_cat_id": 67034,
        "meta_element_set_no": 999,
        "meta_rev_at_epoch": 244,
        "meta_bstar": -0.02334814,
        "meta_mean_motion_dot": -0.01900237,
        "meta_mean_motion_ddot": 0,
        "tle_line1": "1 67034U 25294E   25361.25002315 -.01900237  00000+0 -23348-1 0  9991",
        "tle_line2": "2 67034  42.9993  93.7002 0001449 279.5923 139.5249 15.62628991  2446"
      },
      "geometry": {
        "type": "Point",
        "coordinates": [
          120.72461492274827,
          24.246207896406663
        ]
      }
    },
    {
      "type": "Feature",
      "properties": {
        "norad_id": 67035,
        "name": "STARLINK-36085",
        "group": "last-30-days",
        "lat": 26.648289038025094,
        "lon": 124.39381866105194,
        "alt_km": 380.2735416587857,
        "timestamp": "2025-12-27T13:34:48.009734+00:00",
        "meta_object_name": "STARLINK-36085",
        "meta_object_id": "2025-294F",
        "meta_epoch": "2025-12-27T06:00:02.000160",
        "meta_mean_motion": 15.62609225,
        "meta_eccentricity": 0.00013388,
        "meta_inclination": 42.9994,
        "meta_ra_of_asc_node": 93.6894,
        "meta_arg_of_pericenter": 281.9644,
        "meta_mean_anomaly": 141.2809,
        "meta_ephemeris_type": 0,
        "meta_classification_type": "U",
        "meta_norad_cat_id": 67035,
        "meta_element_set_no": 999,
        "meta_rev_at_epoch": 244,
        "meta_bstar": -0.02362973,
        "meta_mean_motion_dot": -0.01919067,
        "meta_mean_motion_ddot": 0,
        "tle_line1": "1 67035U 25294F   25361.25002315 -.01919067  00000+0 -23630-1 0  9997",
        "tle_line2": "2 67035  42.9994  93.6894 0001338 281.9644 141.2809 15.62609225  2441"
      },
      "geometry": {
        "type": "Point",
        "coordinates": [
          124.39381866105194,
          26.648289038025094
        ]
      }
    },
    {
      "type": "Feature",
      "properties": {
        "norad_id": 67036,
        "name": "STARLINK-36125",
        "group": "last-30-days",
        "lat": 25.458760259790406,
        "lon": 122.54155291005043,
        "alt_km": 380.5165937016736,
        "timestamp": "2025-12-27T13:34:48.009744+00:00",
        "meta_object_name": "STARLINK-36125",
        "meta_object_id": "2025-294G",
        "meta_epoch": "2025-12-27T06:00:02.000160",
        "meta_mean_motion": 15.62614829,
        "meta_eccentricity": 0.00015141,
        "meta_inclination": 42.9995,
        "meta_ra_of_asc_node": 93.6956,
        "meta_arg_of_pericenter": 277.214,
        "meta_mean_anomaly": 143.9663,
        "meta_ephemeris_type": 0,
        "meta_classification_type": "U",
        "meta_norad_cat_id": 67036,
        "meta_element_set_no": 999,
        "meta_rev_at_epoch": 263,
        "meta_bstar": -0.023329356,
        "meta_mean_motion_dot": -0.01897989,
        "meta_mean_motion_ddot": 0,
        "tle_line1": "1 67036U 25294G   25361.25002315 -.01897989  00000+0 -23329-1 0  9991",
        "tle_line2": "2 67036  42.9995  93.6956 0001514 277.2140 143.9663 15.62614829  2631"
      },
      "geometry": {
        "type": "Point",
        "coordinates": [
          122.54155291005043,
          25.458760259790406
        ]
      }
    },
    {
      "type": "Feature",
      "properties": {
        "norad_id": 67037,
        "name": "STARLINK-35732",
        "group": "last-30-days",
        "lat": 27.840599200420716,
        "lon": 126.33157043233479,
        "alt_km": 380.2006841857856,
        "timestamp": "2025-12-27T13:34:48.009756+00:00",
        "meta_object_name": "STARLINK-35732",
        "meta_object_id": "2025-294H",
        "meta_epoch": "2025-12-27T06:00:02.000160",
        "meta_mean_motion": 15.62589499,
        "meta_eccentricity": 0.0001423,
        "meta_inclination": 42.9992,
        "meta_ra_of_asc_node": 93.6841,
        "meta_arg_of_pericenter": 281.9263,
        "meta_mean_anomaly": 143.4375,
        "meta_ephemeris_type": 0,
        "meta_classification_type": "U",
        "meta_norad_cat_id": 67037,
        "meta_element_set_no": 999,
        "meta_rev_at_epoch": 255,
        "meta_bstar": -0.023643307,
        "meta_mean_motion_dot": -0.01918778,
        "meta_mean_motion_ddot": 0,
        "tle_line1": "1 67037U 25294H   25361.25002315 -.01918778  00000+0 -23643-1 0  9991",
        "tle_line2": "2 67037  42.9992  93.6841 0001423 281.9263 143.4375 15.62589499  2559"
      },
      "geometry": {
        "type": "Point",
        "coordinates": [
          126.33157043233479,
          27.840599200420716
        ]
      }
    },
    {
      "type": "Feature",
      "properties": {
        "norad_id": 67038,
        "name": "STARLINK-35775",
        "group": "last-30-days",
        "lat": 28.946752676342935,
        "lon": 128.2108581373976,
        "alt_km": 380.11605589036117,
        "timestamp": "2025-12-27T13:34:48.009766+00:00",
        "meta_object_name": "STARLINK-35775",
        "meta_object_id": "2025-294J",
        "meta_epoch": "2025-12-27T06:00:02.000160",
        "meta_mean_motion": 15.62577462,
        "meta_eccentricity": 0.00014776,
        "meta_inclination": 42.9992,
        "meta_ra_of_asc_node": 93.6797,
        "meta_arg_of_pericenter": 280.0953,
        "meta_mean_anomaly": 147.2669,
        "meta_ephemeris_type": 0,
        "meta_classification_type": "U",
        "meta_norad_cat_id": 67038,
        "meta_element_set_no": 999,
        "meta_rev_at_epoch": 255,
        "meta_bstar": -0.023476385,
        "meta_mean_motion_dot": -0.01906044,
        "meta_mean_motion_ddot": 0,
        "tle_line1": "1 67038U 25294J   25361.25002315 -.01906044  00000+0 -23476-1 0  9999",
        "tle_line2": "2 67038  42.9992  93.6797 0001477 280.0953 147.2669 15.62577462  2550"
      },
      "geometry": {
        "type": "Point",
        "coordinates": [
          128.2108581373976,
          28.946752676342935
        ]
      }
    },
    {
      "type": "Feature",
      "properties": {
        "norad_id": 67039,
        "name": "STARLINK-35705",
        "group": "last-30-days",
        "lat": 31.099675658557878,
        "lon": 132.13376903503084,
        "alt_km": 379.8569419528749,
        "timestamp": "2025-12-27T13:34:48.009776+00:00",
        "meta_object_name": "STARLINK-35705",
        "meta_object_id": "2025-294K",
        "meta_epoch": "2025-12-27T06:00:02.000160",
        "meta_mean_motion": 15.6255287,
        "meta_eccentricity": 0.00014023,
        "meta_inclination": 42.9994,
        "meta_ra_of_asc_node": 93.6697,
        "meta_arg_of_pericenter": 280.4507,
        "meta_mean_anomaly": 150.9625,
        "meta_ephemeris_type": 0,
        "meta_classification_type": "U",
        "meta_norad_cat_id": 67039,
        "meta_element_set_no": 999,
        "meta_rev_at_epoch": 244,
        "meta_bstar": -0.023428933,
        "meta_mean_motion_dot": -0.01900952,
        "meta_mean_motion_ddot": 0,
        "tle_line1": "1 67039U 25294K   25361.25002315 -.01900952  00000+0 -23429-1 0  9990",
        "tle_line2": "2 67039  42.9994  93.6697 0001402 280.4507 150.9625 15.62552870  2446"
      },
      "geometry": {
        "type": "Point",
        "coordinates": [
          132.13376903503084,
          31.099675658557878
        ]
      }
    }
  ]
}